OBJECT_NAME,OBJECT_ID,EPOCH,MEAN_MOTION,ECCENTRICITY,INCLINATION,RA_OF_ASC_NODE,ARG_OF_PERICENTER,MEAN_ANOMALY,EPHEMERIS_TYPE,CLASSIFICATION_TYPE,NORAD_CAT_ID,ELEMENT_SET_NO,REV_AT_EPOCH,BSTAR,MEAN_MOTION_DOT,MEAN_MOTION_DDOT
STARLINK-37423,2026-094P,2026-07-08T23:45:39.062880,15.33467024,.00014858,97.2825,204.1857,98.7810,261.3601,0,U,68852,999,1139,-.76877436E-4,-.2558E-4,0
STARLINK-37476,2026-094Q,2026-07-08T23:49:35.865408,15.33472462,.00018561,97.2847,204.1827,118.2186,241.9245,0,U,68853,999,1139,.51631978E-3,.16645E-3,0
STARLINK-37463,2026-094R,2026-07-08T22:07:48.175968,15.33479560,.00016275,97.2858,204.1222,92.5245,267.6184,0,U,68854,999,1138,.60752919E-3,.19611E-3,0
STARLINK-37467,2026-094S,2026-07-08T14:14:03.411456,15.33462667,.00001396,97.2854,203.8050,245.8680,114.2548,0,U,68855,999,1133,.4616311E-3,.14866E-3,0
STARLINK-37483,2026-094T,2026-07-08T14:10:08.518368,15.33466314,.00007762,97.2844,203.8076,105.0265,255.1064,0,U,68856,999,1133,.46108515E-3,.1485E-3,0
STARLINK-37468,2026-094U,2026-07-08T14:06:12.795840,15.33433000,.00010437,97.2842,203.8115,96.8000,263.3362,0,U,68857,999,1133,.56531472E-3,.18213E-3,0
STARLINK-37441,2026-094V,2026-07-08T14:02:18.690720,15.33465595,.00009503,97.2844,203.8156,67.9977,292.1367,0,U,68858,999,1133,.42651072E-3,.13728E-3,0
STARLINK-37488,2026-094W,2026-07-08T23:22:09.892704,15.33509839,.00006106,97.2851,204.2069,96.3779,263.7534,0,U,68859,999,1139,.66919815E-3,.21635E-3,0
STARLINK-37388,2026-094X,2026-07-09T00:48:19.394784,15.33474346,.00011844,97.2833,204.2769,110.6902,249.4467,0,U,68860,999,1140,.4654106E-3,.14994E-3,0
STARLINK-37479,2026-094Y,2026-07-09T00:40:28.933824,15.33427465,.00010782,97.2830,204.2847,100.3613,259.7752,0,U,68861,999,1140,.59461263E-3,.19159E-3,0
STARLINK-37453,2026-094Z,2026-07-08T23:18:15.949152,15.33452496,.00009829,97.2839,204.2092,94.8977,265.2378,0,U,68862,999,1139,.36814849E-3,.11832E-3,0
STARLINK-37430,2026-094AA,2026-07-08T23:10:26.690016,15.33471988,.00013235,97.2841,204.2167,86.3559,273.7835,0,U,68863,999,1139,.39435619E-3,.12688E-3,0
STARLINK-37527,2026-097A,2026-07-08T23:59:59.535168,15.33446183,.00017395,97.2867,25.1193,96.5890,263.5550,0,U,68895,999,1082,.16602461E-3,.5289E-4,0
STARLINK-37432,2026-097B,2026-07-09T07:02:49.304544,15.33447804,.00019425,97.2863,25.4865,88.8696,271.2769,0,U,68896,999,1087,.24707739E-3,.7911E-4,0
STARLINK-37534,2026-097C,2026-07-09T12:55:11.743968,15.33466749,.0002366,97.2829,25.7627,122.7370,237.4101,0,U,68897,999,1091,.7741E-3,.25017E-3,0
STARLINK-37386,2026-097D,2026-07-08T23:36:30.104928,15.33457230,.00019872,97.2861,25.1412,90.6736,269.4734,0,U,68898,999,1082,.41491642E-3,.13349E-3,0
STARLINK-37514,2026-097E,2026-07-08T23:48:15.001920,15.33454812,.00012371,97.2858,25.1311,90.1911,269.9474,0,U,68899,999,1082,.69111226E-3,.2231E-3,0
STARLINK-36961,2026-097F,2026-07-08T23:24:45.601056,15.33442366,.00017083,97.2865,25.1517,84.4661,275.6776,0,U,68900,999,1082,.18160737E-3,.5792E-4,0
STARLINK-37360,2026-097G,2026-07-08T11:40:00.053472,15.33459436,.00018685,97.2871,24.7451,99.3980,260.7474,0,U,68901,999,1075,.58393603E-3,.18833E-3,0
STARLINK-37564,2026-097H,2026-07-08T12:03:29.537280,15.33448231,.00023497,97.2850,24.7232,96.4365,263.7146,0,U,68902,999,1075,.47480704E-3,.15287E-3,0
STARLINK-37567,2026-097J,2026-07-08T23:32:33.993600,15.33447948,.00025748,97.2874,25.1458,94.1501,266.0037,0,U,68903,999,1082,.46508281E-3,.14972E-3,0
STARLINK-37528,2026-097K,2026-07-09T13:03:01.982880,15.33461696,.0001787,97.2860,25.7574,88.2238,271.9209,0,U,68904,999,1091,.26116E-3,.837E-4,0
STARLINK-37494,2026-097L,2026-07-08T23:20:49.290144,15.33449993,.00017984,97.2849,25.1536,75.4129,284.7314,0,U,68905,999,1082,.94191646E-4,.2967E-4,0
STARLINK-37541,2026-097M,2026-07-08T23:56:03.023808,15.33457828,.00015277,97.2857,25.1236,101.4069,258.7345,0,U,68906,999,1082,.46586022E-3,.15001E-3,0
STARLINK-37551,2026-097N,2026-07-08T23:52:08.845248,15.33474927,.00017537,97.2857,25.1258,81.7150,278.4291,0,U,68907,999,1082,.63351452E-3,.20452E-3,0
STARLINK-37566,2026-097P,2026-07-08T23:44:18.272832,15.33449990,.0001528,97.2858,25.1362,92.2251,267.9167,0,U,68908,999,1082,.3041579E-3,.9759E-4,0
STARLINK-37544,2026-097Q,2026-07-08T12:42:38.341152,15.33459850,.00015899,97.2862,24.6881,86.5767,273.5657,0,U,68909,999,1075,.45404367E-3,.14619E-3,0
STARLINK-37493,2026-097R,2026-07-08T23:28:38.920800,15.33467128,.00018396,97.2842,25.1497,112.6864,247.4573,0,U,68910,999,1082,.40003119E-3,.12871E-3,0
STARLINK-37543,2026-097S,2026-07-08T07:29:25.002816,15.33444844,.00024116,97.2874,24.5244,89.4507,270.7012,0,U,68911,999,1072,.36423919E-3,.11703E-3,0
STARLINK-37477,2026-097T,2026-07-09T12:59:05.651232,15.33427723,.0001623,97.2852,25.7605,91.1267,269.0162,0,U,68912,999,1091,.61365E-3,.19777E-3,0
STARLINK-37504,2026-097U,2026-07-09T11:48:37.166976,15.33488205,.0001034,97.2880,25.6764,62.9568,297.1781,0,U,68913,999,1090,.51579E-3,.16636E-3,0
STARLINK-37540,2026-097V,2026-07-07T23:35:39.986880,15.33437571,.00025207,97.2837,24.2027,90.5491,269.6040,0,U,68914,999,1067,.37915783E-3,.12183E-3,0
STARLINK-37516,2026-097W,2026-07-09T06:23:40.687296,15.33470271,.0001496,97.2834,25.5224,91.9063,268.2351,0,U,68915,999,1087,.43982907E-3,.14162E-3,0
STARLINK-37507,2026-097X,2026-07-09T12:51:16.677216,15.33468080,.0002069,97.2821,25.7675,97.1550,262.9928,0,U,68916,999,1091,.6242E-3,.20146E-3,0
STARLINK-37542,2026-097Y,2026-07-09T00:15:37.638720,15.33449891,.00013574,97.2853,25.2573,98.9070,261.2326,0,U,68917,999,1083,.46280437E-3,.14898E-3,0
STARLINK-37529,2026-097Z,2026-07-09T00:03:54.432576,15.33457174,.00014209,97.2844,25.2676,106.9736,253.1662,0,U,68918,999,1083,.7092121E-3,.22899E-3,0
STARLINK-37258,2026-099A,2026-07-08T21:58:32.411424,15.34412485,.00008861,53.1585,60.0439,102.9317,257.1784,0,U,68951,999,1060,.5990439E-3,.19925E-3,0
STARLINK-37308,2026-099B,2026-07-08T21:55:30.840096,15.34399145,.00015055,53.1589,60.0478,97.6620,262.4553,0,U,68952,999,1060,.66033728E-3,.21999E-3,0
STARLINK-37337,2026-099C,2026-07-08T21:52:29.058816,15.34409136,.00009846,53.1584,60.0371,94.6645,265.4470,0,U,68953,999,1060,.4212117E-3,.13886E-3,0
STARLINK-37301,2026-099D,2026-07-09T00:54:00.927072,15.34407956,.00012776,53.1588,59.3981,110.4268,249.6871,0,U,68954,999,1062,.39989579E-3,.13162E-3,0
STARLINK-36794,2026-099E,2026-07-08T23:23:14.831808,15.34414728,.00010565,53.1592,59.7047,89.9484,270.1639,0,U,68955,999,1061,.69692283E-3,.23254E-3,0
STARLINK-36760,2026-099F,2026-07-09T00:50:58.579872,15.34420064,.00012134,53.1592,59.3705,100.1364,259.9775,0,U,68956,999,1062,.3819777E-3,.12559E-3,0
STARLINK-37047,2026-099G,2026-07-09T00:47:57.219360,15.34414447,.00012778,53.1595,59.3748,78.6514,281.4633,0,U,68957,999,1062,.42977184E-3,.14178E-3,0
STARLINK-36242,2026-099H,2026-07-08T23:11:07.550304,15.34416478,.000114,53.1591,59.6468,97.1111,263.0021,0,U,68958,999,1061,.60749213E-3,.20215E-3,0
STARLINK-37033,2026-099J,2026-07-08T21:34:18.519744,15.34400479,.00013296,53.1596,59.9553,98.1948,261.9205,0,U,68959,999,1060,.31551045E-3,.10299E-3,0
STARLINK-36978,2026-099K,2026-07-09T00:38:51.929088,15.34418626,.00013172,53.1598,59.3356,69.4168,290.6976,0,U,68960,999,1062,.51687438E-3,.17137E-3,0
STARLINK-36965,2026-099L,2026-07-09T00:35:50.215200,15.34403016,.00013001,53.1595,59.3153,104.5134,255.6013,0,U,68961,999,1062,.35124628E-3,.11511E-3,0
STARLINK-36765,2026-099M,2026-07-09T17:44:33.188064,15.34411443,.0001328,53.1590,55.9387,104.1669,255.9481,0,U,68962,999,1073,.637E-3,.21214E-3,0
STARLINK-36764,2026-099N,2026-07-09T00:29:46.323456,15.34415400,.00013327,53.1599,59.2738,70.9088,289.2059,0,U,68963,999,1062,.41917589E-3,.13819E-3,0
STARLINK-36731,2026-099P,2026-07-09T00:26:44.433312,15.34418753,.00012684,53.1591,59.2580,68.9526,291.1612,0,U,68964,999,1062,.49078379E-3,.16251E-3,0
STARLINK-36664,2026-099Q,2026-07-09T17:35:25.939104,15.34450772,.000139,53.1591,55.8955,67.4935,292.6215,0,U,68965,999,1073,.58197E-3,.19369E-3,0
STARLINK-36402,2026-099R,2026-07-09T00:20:41.288064,15.34402212,.00014797,53.1605,59.2380,86.5727,273.5445,0,U,68966,999,1062,.26234429E-3,.8498E-4,0
STARLINK-36671,2026-099S,2026-07-08T22:21:10.988352,15.33551370,.00012012,53.1584,59.4180,96.9967,263.1172,0,U,68967,999,1061,.38804193E-3,.12411E-3,0
STARLINK-36665,2026-099T,2026-07-09T00:14:37.299552,15.34419283,.00015166,53.1592,59.2042,82.3519,277.7656,0,U,68968,999,1062,.45290948E-3,.14966E-3,0
STARLINK-36303,2026-099U,2026-07-09T20:00:01.999008,15.33556006,.0001445,53.1582,55.1907,90.1975,220.3387,0,U,68969,999,589,-.45934E-3,-.15452E-3,0
STARLINK-37257,2026-099V,2026-07-09T17:20:19.933152,15.34394055,.0003578,53.1574,55.8395,90.5665,269.5748,0,U,68970,999,1073,.42724E-3,.14084E-3,0
STARLINK-37367,2026-099W,2026-07-08T22:31:44.182848,15.34411402,.00014,53.1588,59.4828,74.3983,285.7174,0,U,68971,999,1061,.28295304E-3,.9199E-4,0
STARLINK-37259,2026-099X,2026-07-09T01:36:17.637120,15.34408525,.00010471,53.1579,58.8628,94.7401,265.3721,0,U,68972,999,1063,.31532285E-3,.10295E-3,0
STARLINK-37387,2026-099Y,2026-07-09T01:09:02.056608,15.34412195,.00013104,53.1587,58.7498,94.9997,265.1155,0,U,68973,999,1063,.47753256E-3,.15798E-3,0
STARLINK-37362,2026-099Z,2026-07-08T22:25:40.888128,15.34409192,.00014524,53.1581,59.4570,92.4660,267.6509,0,U,68974,999,1061,.71950465E-3,.24018E-3,0
STARLINK-36667,2026-099AA,2026-07-08T20:48:51.483456,15.34394597,.00008682,53.1572,59.7382,100.0874,260.0226,0,U,68975,999,1060,.45357822E-3,.14977E-3,0
STARLINK-36735,2026-099AB,2026-07-08T22:19:37.113024,15.34407659,.00012123,53.1580,59.4189,110.0154,250.0979,0,U,68976,999,1061,.45708223E-3,.15102E-3,0
STARLINK-37371,2026-099AC,2026-07-09T18:35:55.165056,15.34387138,.0001277,53.1585,55.4398,91.0915,269.0234,0,U,68977,999,1074,-.27942E-4,-.132E-4,0
STARLINK-37293,2026-099AD,2026-07-08T20:39:45.819936,15.34404601,.00010979,53.1583,59.6952,77.2225,282.8900,0,U,68978,999,1060,.29125812E-3,.9478E-4,0
